STARLINK-36589          
1 67843U 26033Y   26062.68092058  .00399064  00000+0  18042-2 0  9993
2 67843  42.9972 308.1258 0002004 280.5933  79.4713 15.82105354  3677
STARLINK-36598          
1 67844U 26033Z   26062.74330000  .00409192  00000+0  18410-2 0  9996
2 67844  42.9974 307.7318 0001990 256.1719 103.8932 15.82183123  3682
STARLINK-36606          
1 67845U 26033AA  26062.74254883  .00285240  00000+0  13063-2 0  9996
2 67845  42.9977 307.7249 0001637 249.6818 110.3878 15.82125784  3685
STARLINK-36658          
1 67846U 26033AB  26062.74180347  .00419981  00000+0  18936-2 0  9995
2 67846  42.9966 307.7198 0001896 219.5316 140.5417 15.82109817  3686
STARLINK-36618          
1 67847U 26033AC  26062.75002314 -.00981542  30758-3 -21616-2 0  9999
2 67847  42.9860 306.0340 0002218 261.3298  69.4611 15.97144721  3712
STARLINK-36660          
1 67848U 26033AD  26062.67792626  .00669490  00000+0  28939-2 0  9994
2 67848  42.9974 308.1004 0003048 235.3111 124.7474 15.82376970  3670
STARLINK-36602          
1 67849U 26033AE  26062.67717438  .00465965  00000+0  20898-2 0  9990
2 67849  42.9969 308.0940 0001976 287.6936  72.3720 15.82105115  3679
STARLINK-36840          
1 67850U 26034A   26062.75002314 -.00071641  00000+0 -36168-3 0  9996
2 67850  53.1582 241.1267 0001109  59.0687  79.0728 15.80918050  2957
STARLINK-36348          
1 67851U 26034B   26062.75002314 -.00084003  00000+0 -42514-3 0  9995
2 67851  53.1585 241.1171 0001333  61.1141  81.2960 15.80925606  2906
STARLINK-36276          
1 67852U 26034C   26062.75002314 -.00028831  00000+0 -14292-3 0  9995
2 67852  53.1585 241.1081 0001481  51.3014  95.4062 15.80886745  2901
STARLINK-36785          
1 67853U 26034D   26062.75002314 -.00051649  00000+0 -25930-3 0  9990
2 67853  53.1585 241.0991 0001442  56.1360  94.8313 15.80904872  2909
STARLINK-36608          
1 67854U 26034E   26062.75002314 -.00070739  00000+0 -35706-3 0  9994
2 67854  53.1584 241.0905 0001488  49.4367 105.7986 15.80915642  2901
STARLINK-36838          
1 67855U 26034F   26062.75002314 -.00048387  00000+0 -24270-3 0  9993
2 67855  53.1586 241.0812 0001488  43.9841 115.5344 15.80896572  2904
STARLINK-36843          
1 67856U 26034G   26062.75002314 -.00053272  00000+0 -26755-3 0  9993
2 67856  53.1583 241.0640 0001061  77.0452  91.0003 15.80910852  2902
STARLINK-36828          
1 67857U 26034H   26062.75002314 -.00057648  00000+0 -28991-3 0  9999
2 67857  53.1583 241.0729 0001181  64.2254  99.5445 15.80915077  2909
STARLINK-36837          
1 67858U 26034J   26062.75002314 -.00031819  00000+0 -15812-3 0  9990
2 67858  53.1586 241.0545 0001265  71.9189 100.4135 15.80891955  2900
