[{"OBJECT_NAME":"STARLINK-36589","OBJECT_ID":"2026-033Y","EPOCH":"2026-03-03T16:20:31.538112","MEAN_MOTION":15.82105354,"ECCENTRICITY":0.0002004,"INCLINATION":42.9972,"RA_OF_ASC_NODE":308.1258,"ARG_OF_PERICENTER":280.5933,"MEAN_ANOMALY":79.4713,"EPHEMERIS_TYPE":0,"CLASSIFICATION_TYPE":"U","NORAD_CAT_ID":67843,"ELEMENT_SET_NO":999,"REV_AT_EPOCH":367,"BSTAR":0.0018042,"MEAN_MOTION_DOT":0.00399064,"MEAN_MOTION_DDOT":0},{"OBJECT_NAME":"STARLINK-36598","OBJECT_ID":"2026-033Z","EPOCH":"2026-03-03T17:50:21.120000","MEAN_MOTION":15.82183123,"ECCENTRICITY":0.000199,"INCLINATION":42.9974,"RA_OF_ASC_NODE":307.7318,"ARG_OF_PERICENTER":256.1719,"MEAN_ANOMALY":103.8932,"EPHEMERIS_TYPE":0,"CLASSIFICATION_TYPE":"U","NORAD_CAT_ID":67844,"ELEMENT_SET_NO":999,"REV_AT_EPOCH":368,"BSTAR":0.001841,"MEAN_MOTION_DOT":0.00409192,"MEAN_MOTION_DDOT":0},{"OBJECT_NAME":"STARLINK-36606","OBJECT_ID":"2026-033AA","EPOCH":"2026-03-03T17:49:16.218912","MEAN_MOTION":15.82125784,"ECCENTRICITY":0.0001637,"INCLINATION":42.9977,"RA_OF_ASC_NODE":307.7249,"ARG_OF_PERICENTER":249.6818,"MEAN_ANOMALY":110.3878,"EPHEMERIS_TYPE":0,"CLASSIFICATION_TYPE":"U","NORAD_CAT_ID":67845,"ELEMENT_SET_NO":999,"REV_AT_EPOCH":368,"BSTAR":0.0013063,"MEAN_MOTION_DOT":0.0028524,"MEAN_MOTION_DDOT":0},{"OBJECT_NAME":"STARLINK-36658","OBJECT_ID":"2026-033AB","EPOCH":"2026-03-03T17:48:11.819808","MEAN_MOTION":15.82109817,"ECCENTRICITY":0.0001896,"INCLINATION":42.9966,"RA_OF_ASC_NODE":307.7198,"ARG_OF_PERICENTER":219.5316,"MEAN_ANOMALY":140.5417,"EPHEMERIS_TYPE":0,"CLASSIFICATION_TYPE":"U","NORAD_CAT_ID":67846,"ELEMENT_SET_NO":999,"REV_AT_EPOCH":368,"BSTAR":0.0018936,"MEAN_MOTION_DOT":0.00419981,"MEAN_MOTION_DDOT":0},{"OBJECT_NAME":"STARLINK-36618","OBJECT_ID":"2026-033AC","EPOCH":"2026-03-03T18:00:01.999296","MEAN_MOTION":15.97144721,"ECCENTRICITY":0.0002218,"INCLINATION":42.986,"RA_OF_ASC_NODE":306.034,"ARG_OF_PERICENTER":261.3298,"MEAN_ANOMALY":69.4611,"EPHEMERIS_TYPE":0,"CLASSIFICATION_TYPE":"U","NORAD_CAT_ID":67847,"ELEMENT_SET_NO":999,"REV_AT_EPOCH":371,"BSTAR":-0.0021616,"MEAN_MOTION_DOT":-0.00981542,"MEAN_MOTION_DDOT":0.00030758},{"OBJECT_NAME":"STARLINK-36660","OBJECT_ID":"2026-033AD","EPOCH":"2026-03-03T16:16:12.828864","MEAN_MOTION":15.8237697,"ECCENTRICITY":0.0003048,"INCLINATION":42.9974,"RA_OF_ASC_NODE":308.1004,"ARG_OF_PERICENTER":235.3111,"MEAN_ANOMALY":124.7474,"EPHEMERIS_TYPE":0,"CLASSIFICATION_TYPE":"U","NORAD_CAT_ID":67848,"ELEMENT_SET_NO":999,"REV_AT_EPOCH":367,"BSTAR":0.0028939,"MEAN_MOTION_DOT":0.0066949,"MEAN_MOTION_DDOT":0},{"OBJECT_NAME":"STARLINK-36602","OBJECT_ID":"2026-033AE","EPOCH":"2026-03-03T16:15:07.866432","MEAN_MOTION":15.82105115,"ECCENTRICITY":0.0001976,"INCLINATION":42.9969,"RA_OF_ASC_NODE":308.094,"ARG_OF_PERICENTER":287.6936,"MEAN_ANOMALY":72.372,"EPHEMERIS_TYPE":0,"CLASSIFICATION_TYPE":"U","NORAD_CAT_ID":67849,"ELEMENT_SET_NO":999,"REV_AT_EPOCH":367,"BSTAR":0.0020898,"MEAN_MOTION_DOT":0.00465965,"MEAN_MOTION_DDOT":0},{"OBJECT_NAME":"STARLINK-36840","OBJECT_ID":"2026-034A","EPOCH":"2026-03-03T18:00:01.999296","MEAN_MOTION":15.8091805,"ECCENTRICITY":0.0001109,"INCLINATION":53.1582,"RA_OF_ASC_NODE":241.1267,"ARG_OF_PERICENTER":59.0687,"MEAN_ANOMALY":79.0728,"EPHEMERIS_TYPE":0,"CLASSIFICATION_TYPE":"U","NORAD_CAT_ID":67850,"ELEMENT_SET_NO":999,"REV_AT_EPOCH":295,"BSTAR":-0.00036168,"MEAN_MOTION_DOT":-0.00071641,"MEAN_MOTION_DDOT":0},{"OBJECT_NAME":"STARLINK-36348","OBJECT_ID":"2026-034B","EPOCH":"2026-03-03T18:00:01.999296","MEAN_MOTION":15.80925606,"ECCENTRICITY":0.0001333,"INCLINATION":53.1585,"RA_OF_ASC_NODE":241.1171,"ARG_OF_PERICENTER":61.1141,"MEAN_ANOMALY":81.296,"EPHEMERIS_TYPE":0,"CLASSIFICATION_TYPE":"U","NORAD_CAT_ID":67851,"ELEMENT_SET_NO":999,"REV_AT_EPOCH":290,"BSTAR":-0.00042514,"MEAN_MOTION_DOT":-0.00084003,"MEAN_MOTION_DDOT":0},{"OBJECT_NAME":"STARLINK-36276","OBJECT_ID":"2026-034C","EPOCH":"2026-03-03T18:00:01.999296","MEAN_MOTION":15.80886745,"ECCENTRICITY":0.0001481,"INCLINATION":53.1585,"RA_OF_ASC_NODE":241.1081,"ARG_OF_PERICENTER":51.3014,"MEAN_ANOMALY":95.4062,"EPHEMERIS_TYPE":0,"CLASSIFICATION_TYPE":"U","NORAD_CAT_ID":67852,"ELEMENT_SET_NO":999,"REV_AT_EPOCH":290,"BSTAR":-0.00014292,"MEAN_MOTION_DOT":-0.00028831,"MEAN_MOTION_DDOT":0},{"OBJECT_NAME":"STARLINK-36785","OBJECT_ID":"2026-034D","EPOCH":"2026-03-03T18:00:01.999296","MEAN_MOTION":15.80904872,"ECCENTRICITY":0.0001442,"INCLINATION":53.1585,"RA_OF_ASC_NODE":241.0991,"ARG_OF_PERICENTER":56.136,"MEAN_ANOMALY":94.8313,"EPHEMERIS_TYPE":0,"CLASSIFICATION_TYPE":"U","NORAD_CAT_ID":67853,"ELEMENT_SET_NO":999,"REV_AT_EPOCH":290,"BSTAR":-0.0002593,"MEAN_MOTION_DOT":-0.00051649,"MEAN_MOTION_DDOT":0},{"OBJECT_NAME":"STARLINK-36608","OBJECT_ID":"2026-034E","EPOCH":"2026-03-03T18:00:01.999296","MEAN_MOTION":15.80915642,"ECCENTRICITY":0.0001488,"INCLINATION":53.1584,"RA_OF_ASC_NODE":241.0905,"ARG_OF_PERICENTER":49.4367,"MEAN_ANOMALY":105.7986,"EPHEMERIS_TYPE":0,"CLASSIFICATION_TYPE":"U","NORAD_CAT_ID":67854,"ELEMENT_SET_NO":999,"REV_AT_EPOCH":290,"BSTAR":-0.00035706,"MEAN_MOTION_DOT":-0.00070739,"MEAN_MOTION_DDOT":0},{"OBJECT_NAME":"STARLINK-36838","OBJECT_ID":"2026-034F","EPOCH":"2026-03-03T18:00:01.999296","MEAN_MOTION":15.80896572,"ECCENTRICITY":0.0001488,"INCLINATION":53.1586,"RA_OF_ASC_NODE":241.0812,"ARG_OF_PERICENTER":43.9841,"MEAN_ANOMALY":115.5344,"EPHEMERIS_TYPE":0,"CLASSIFICATION_TYPE":"U","NORAD_CAT_ID":67855,"ELEMENT_SET_NO":999,"REV_AT_EPOCH":290,"BSTAR":-0.0002427,"MEAN_MOTION_DOT":-0.00048387,"MEAN_MOTION_DDOT":0},{"OBJECT_NAME":"STARLINK-36843","OBJECT_ID":"2026-034G","EPOCH":"2026-03-03T18:00:01.999296","MEAN_MOTION":15.80910852,"ECCENTRICITY":0.0001061,"INCLINATION":53.1583,"RA_OF_ASC_NODE":241.064,"ARG_OF_PERICENTER":77.0452,"MEAN_ANOMALY":91.0003,"EPHEMERIS_TYPE":0,"CLASSIFICATION_TYPE":"U","NORAD_CAT_ID":67856,"ELEMENT_SET_NO":999,"REV_AT_EPOCH":290,"BSTAR":-0.00026755,"MEAN_MOTION_DOT":-0.00053272,"MEAN_MOTION_DDOT":0},{"OBJECT_NAME":"STARLINK-36828","OBJECT_ID":"2026-034H","EPOCH":"2026-03-03T18:00:01.999296","MEAN_MOTION":15.80915077,"ECCENTRICITY":0.0001181,"INCLINATION":53.1583,"RA_OF_ASC_NODE":241.0729,"ARG_OF_PERICENTER":64.2254,"MEAN_ANOMALY":99.5445,"EPHEMERIS_TYPE":0,"CLASSIFICATION_TYPE":"U","NORAD_CAT_ID":67857,"ELEMENT_SET_NO":999,"REV_AT_EPOCH":290,"BSTAR":-0.00028991,"MEAN_MOTION_DOT":-0.00057648,"MEAN_MOTION_DDOT":0},{"OBJECT_NAME":"STARLINK-36837","OBJECT_ID":"2026-034J","EPOCH":"2026-03-03T18:00:01.999296","MEAN_MOTION":15.80891955,"ECCENTRICITY":0.0001265,"INCLINATION":53.1586,"RA_OF_ASC_NODE":241.0545,"ARG_OF_PERICENTER":71.9189,"MEAN_ANOMALY":100.4135,"EPHEMERIS_TYPE":0,"CLASSIFICATION_TYPE":"U","NORAD_CAT_ID":67858,"ELEMENT_SET_NO":999,"REV_AT_EPOCH":290,"BSTAR":-0.00015812,"MEAN_MOTION_DOT":-0.00031819,"MEAN_MOTION_DDOT":0}]
